STARLINK-1434           
1 45712U 20035BH  26068.24137979  .00054112  00000+0  20295-2 0  9995
2 45712  53.0547  22.1128 0005343  88.0400 272.1210 15.26724568319325
STARLINK-35322          
1 66332U 25253P   26068.41128703  .00030146  00000+0  11008-2 0  9990
2 66332  42.9972 213.9277 0002747 285.6819  74.3729 15.27571257 20203
